{"lat":49.2718617,"lon":-123.1100446,"timestamp":"2020-03-20T17:59:09.000-07:00","amenity":"bench","tags":{}}
{"lat":49.257061,"lon":-123.0900194,"timestamp":"2020-03-20T20:35:35.000-07:00","amenity":"bench","tags":{"wheelchair":"limited, on grass","colour":"grey, brown","backrest":"yes","shelter":"open","material":"metal_backrest,_wooden_seat","seats":"6"}}
{"lat":49.2539503,"lon":-123.0681558,"timestamp":"2020-05-05T05:48:06.000-07:00","amenity":"bench","tags":{"wheelchair":"half","image":"https://www.flickr.com/photos/187533567@N04/49680466513/in/dateposted-public/","colour":"black","shelter":"yes","access":"yes","material":"metal","seats":"8","ele":"low"}}
{"lat":49.2537956,"lon":-123.0678331,"timestamp":"2020-03-20T22:49:43.000-07:00","amenity":"bench","tags":{"wheelchair":"yes","image":"https://www.flickr.com/photos/187533567@N04/49681000626/in/dateposted-public/","colour":"brown","backrest":"yes","shelter":"no","access":"yes","material":"wood","seats":"2"}}
{"lat":49.2539203,"lon":-123.0678298,"timestamp":"2020-03-20T22:49:43.000-07:00","amenity":"bench","tags":{"wheelchair":"limited","image":"https://www.flickr.com/photos/187533567@N04/49681000716/in/dateposted-public/","colour":"light brown","backrest":"yes","shelter":"no","access":"yes","material":"wood","seats":"8"}}
{"lat":49.2529051,"lon":-123.0681267,"timestamp":"2020-03-20T22:49:43.000-07:00","amenity":"bench","tags":{"wheelchair":"yes","image":"https://www.flickr.com/photos/187533567@N04/49681000851/in/dateposted-public/","colour":"Chipped black paint on white","backrest":"yes","shelter":"yes","material":"wood","description":"Small bench located in front of a storefront. Access: curb cuts at the ends of each block, parking in front, smooth concrete sidewalks with low elevation ","seats":"2"}}
{"lat":49.2528736,"lon":-123.0681287,"timestamp":"2020-03-20T22:49:43.000-07:00","amenity":"bench","tags":{"wheelchair":"limited","image":"https://www.flickr.com/photos/187533567@N04/49681000936/in/dateposted-public/","colour":"light brown","backrest":"yes","shelter":"yes","access":"yes","material":"wood","description":"Small bench located in front of a storefront. Access: curb cuts at the ends of each block, parking in front, smooth concrete sidewalks with low elevation ","seats":"4"}}
{"lat":49.2528769,"lon":-123.0681036,"timestamp":"2020-03-20T22:49:43.000-07:00","amenity":"bench","tags":{"wheelchair":"no","image":"https://www.flickr.com/photos/187533567@N04/49681000976/in/dateposted-public/","colour":"dark brown","shelter":"open","access":"yes","material":"wood","description":"Handmade low bench in front of a planted tree. When seated you're looking at Toso Wood Gallery and Childbearing Society","seats":"4"}}
{"lat":49.2525527,"lon":-123.068189,"timestamp":"2020-03-20T21:18:34.000-07:00","amenity":"bench","tags":{"wheelchair":"yes","colour":"brown","backrest":"yes","shelter":"yes","access":"customers","material":"wood","bench":"yes","description":"Temporary outdoor seating, patio furniture from the Cafe","outdoor_seating":"sidewalk","seats":"8"}}
{"lat":49.2518086,"lon":-123.06791,"timestamp":"2020-03-20T22:49:43.000-07:00","amenity":"bench","tags":{"wheelchair":"inaccesible","image":"https://www.flickr.com/photos/187533567@N04/49681291092/in/dateposted-public/","colour":"light grey","shelter":"open","material":"concrete","description":"Concrete stairs to sit on, no railing support","seats":"6"}}
{"lat":49.2519777,"lon":-123.0651614,"timestamp":"2020-03-20T21:18:34.000-07:00","amenity":"bench","tags":{"wheelchair":"yes","colour":"black metal and brown wood","backrest":"yes","shelter":"open","access":"yes","material":"wood_and_metal","description":"Three benches under a large tree, back set on a narrow sidewalk, facing busy road with a curb cut on the corner of the block. ","seats":"3"}}
{"lat":49.2519733,"lon":-123.0651308,"timestamp":"2020-03-20T21:18:34.000-07:00","amenity":"bench","tags":{"wheelchair":"yes","colour":"black metal and brown wood","backrest":"yes","shelter":"open","access":"yes","material":"metal_and_wood","description":"Three benches under a large tree, back set on a narrow sidewalk, facing busy road with a curb cut on the corner of the block. ","seats":"3"}}
{"lat":49.2519899,"lon":-123.065192,"timestamp":"2020-03-20T21:18:34.000-07:00","amenity":"bench","tags":{"wheelchair":"yes","colour":"black metal and brown wood","backrest":"yes","shelter":"open","access":"yes","material":"wood_and_metal","description":"Three benches under a large tree, back set on a narrow sidewalk, facing busy road with a curb cut on the corner of the block. ","seats":"3"}}
{"lat":49.2532925,"lon":-123.0669423,"timestamp":"2020-03-20T22:49:43.000-07:00","amenity":"bench","tags":{"wheelchair":"half","image":"https://www.flickr.com/photos/187533567@N04/49680467258/in/dateposted-public/","colour":"light brown","backrest":"yes","shelter":"open","access":"yes","material":"wood","description":"Shaded below a small tree, on level brick paved ground for a narrow side-sidewalk path that leads up to it. It is boarder by a small patch of grass next to it. It faces a busy street nearby a curb cut.","seats":"3"}}
{"lat":49.2566274,"lon":-123.0716815,"timestamp":"2020-03-20T21:37:31.000-07:00","amenity":"bench","tags":{"wheelchair":"limited","colour":"brown","backrest":"yes","shelter":"open","access":"yes","material":"wood","description":"Located at the top of hill, facing the baseball field. Gravely dirt pathway to reach it. Under large trees.","seats":"3"}}
{"lat":49.256645,"lon":-123.0716821,"timestamp":"2020-03-20T21:37:31.000-07:00","amenity":"bench","tags":{"wheelchair":"limited","colour":"wood","backrest":"yes","shelter":"open","access":"yes","material":"wood","description":"Located at the top of hill, facing the baseball field. Gravely dirt pathway to reach it. Under large trees.","seats":"3"}}
{"lat":49.2567156,"lon":-123.0757019,"timestamp":"2020-03-20T22:49:43.000-07:00","amenity":"bench","tags":{"wheelchair":"bad","image":"https://www.flickr.com/photos/187533567@N04/49681291602/in/dateposted-public/","colour":"dark brown","shelter":"no","access":"yes","material":"wood","description":"Run down looking bench that faces busy Knight Street. Fairly closely located to the edge of the sidewalk. Not the most pleasant place to rest.","seats":"3"}}
{"lat":49.2553511,"lon":-123.0836841,"timestamp":"2020-03-20T22:49:43.000-07:00","amenity":"bench","tags":{"wheelchair":"limited","image":"https://www.flickr.com/photos/187533567@N04/49681291677/in/dateposted-public/","colour":"black metal, brown wood","backrest":"yes","shelter":"open","access":"yes","material":"wood_and_metal","description":"Located in front of someone's home, in between their garden. Lovely spot under the trees. Curb cut block on both ends.","seats":"2"}}
{"lat":49.2570679,"lon":-123.0900401,"timestamp":"2020-03-20T21:51:34.000-07:00","amenity":"bench","tags":{"wheelchair":"limited","colour":"brown and grey","backrest":"yes","shelter":"open","access":"yes","material":"wood_and_metal","description":"Two benches in a circle with several small orange boxes to see on. Under beautiful magnolia trees. However, located on grass and can get muddy during the rain.","seats":"3"}}
{"lat":49.2571952,"lon":-123.0924712,"timestamp":"2020-03-20T21:51:34.000-07:00","amenity":"bench","tags":{"wheelchair":"yes","colour":"brown","shelter":"roof","access":"yes","material":"wood","description":"Wood bench between two planters","seats":"3"}}
{"lat":49.2574056,"lon":-123.0928603,"timestamp":"2020-03-20T21:51:34.000-07:00","amenity":"bench","tags":{"wheelchair":"yes","colour":"light brown","backrest":"yes","shelter":"no","access":"yes","material":"wood","description":"Facing a quiet street across from a florist shop. Curb cuts on both ends of the block. Smooth concrete paving and low elevation.","seats":"3"}}
{"lat":49.2578807,"lon":-123.087231,"timestamp":"2020-03-20T21:57:27.000-07:00","amenity":"bench","tags":{"wheelchair":"limited","colour":"light grey","shelter":"no","access":"yes","material":"concrete","description":"Curved concrete stepped seating on brick paved ground in front of a curb cut, however reaching this location is a little tricky since it's on a top of a hill (east of 14, going south)","seats":"12"}}
{"lat":49.2578018,"lon":-123.0872396,"timestamp":"2020-03-20T21:57:27.000-07:00","amenity":"bench","tags":{"wheelchair":"limited","colour":"black","backrest":"yes","shelter":"open","access":"yes","material":"wood","description":"Located in a quiet side street, on brick paved ground in front of a curb cut, however reaching this location is a little tricky since it's on a top of a hill (east of 14, going south)","seats":"3"}}
{"lat":49.2576477,"lon":-123.0872425,"timestamp":"2020-03-20T21:57:27.000-07:00","amenity":"bench","tags":{"wheelchair":"limited","colour":"black","backrest":"yes","shelter":"open","access":"yes","material":"wood","description":"Located in a quiet side street, on brick paved ground in front of a curb cut, however reaching this location is a little tricky since it's on a top of a hill (east of 14, going south)","seats":"3"}}
{"lat":49.2576588,"lon":-123.0689981,"timestamp":"2020-03-20T22:40:03.000-07:00","amenity":"bench","tags":{"wheelchair":"limited","source:image":"https://www.flickr.com/photos/187533567@N04/49681000311/in/dateposted-public/","colour":"red","backrest":"yes","shelter":"open","access":"yes","material":"metal","description":"Small elevated red metal chair at the gateway of a small greenway path under the Skytrain infrastructure","seats":"1"}}
{"lat":49.2576643,"lon":-123.0690239,"timestamp":"2020-03-20T22:40:03.000-07:00","amenity":"bench","tags":{"wheelchair":"limited","source:image":"https://www.flickr.com/photos/187533567@N04/49680466208/in/dateposted-public/","colour":"red","backrest":"yes","shelter":"open","access":"yes","material":"metal","description":"Small elevated red metal chair at the gateway of a small greenway path under the Skytrain infrastructure","seats":"1"}}
{"lat":49.257253,"lon":-123.0689941,"timestamp":"2020-03-20T22:40:03.000-07:00","amenity":"bench","tags":{"wheelchair":"limited","image":"https://www.flickr.com/photos/187533567@N04/49680466288/in/dateposted-public/","colour":"red","backrest":"yes","shelter":"open","access":"yes","material":"metal","description":"Small elevated red metal chair at the gateway of a small greenway path under the Skytrain infrastructure","seats":"1"}}
{"lat":49.2572563,"lon":-123.0689822,"timestamp":"2020-03-20T22:40:03.000-07:00","amenity":"bench","tags":{"wheelchair":"yes","image":"https://www.flickr.com/photos/187533567@N04/49680466288/in/dateposted-public/","colour":"red","backrest":"yes","shelter":"open","access":"yes","material":"metal","description":"Small elevated red metal chair at the gateway of a small greenway path under the Skytrain infrastructure","seats":"1"}}
{"lat":49.2609968,"lon":-123.0656892,"timestamp":"2020-05-19T04:51:17.000-07:00","amenity":"bench","tags":{"wheelchair":"yes","colour":"brownish red","shelter":"open","access":"yes","material":"wood","seats":"8"}}
{"lat":49.1392682,"lon":-122.8888093,"timestamp":"2020-03-21T05:16:15.000-07:00","amenity":"dentist","tags":{"healthcare":"dentist"}}
{"lat":49.1399608,"lon":-122.8883253,"timestamp":"2020-03-21T05:16:15.000-07:00","amenity":"clinic","name":"Aventus","tags":{"healthcare":"clinic"}}
{"lat":49.1389989,"lon":-122.8889834,"timestamp":"2020-03-21T05:16:15.000-07:00","amenity":"clinic","tags":{"healthcare":"clinic"}}
{"lat":49.1390181,"lon":-122.8894958,"timestamp":"2020-03-21T05:16:15.000-07:00","amenity":"restaurant","tags":{"cuisine":"thai"}}
{"lat":49.1378969,"lon":-122.8845085,"timestamp":"2020-03-21T05:37:10.000-07:00","amenity":"parking_entrance","tags":{"level":"-1"}}
{"lat":49.1366741,"lon":-122.8869649,"timestamp":"2020-03-22T06:01:50.000-07:00","amenity":"fast_food","name":"Subway","tags":{"brand:wikidata":"Q244457","cuisine":"sandwich","takeaway":"yes","brand":"Subway","brand:wikipedia":"en:Subway (restaurant)"}}
{"lat":49.22701,"lon":-123.1287335,"timestamp":"2019-07-16T20:38:16.000-07:00","amenity":"cafe","name":"Jazen Tea","tags":{"cuisine":"bubble_tea;smoothie;fruit_tea","brand":"Jazen Tea"}}
{"lat":49.2811031,"lon":-123.1219144,"timestamp":"2019-07-16T21:37:02.000-07:00","amenity":"restaurant","name":"Poke Time","tags":{"website":"https://www.poketime.ca","opening_hours":"Mo-Su 10:00-21:00","cuisine":"poke","outdoor_seating":"no","addr:street":"Howe Street","payment:debit_cards":"yes"}}
{"lat":49.2478149,"lon":-123.0700724,"timestamp":"2019-10-07T05:30:47.000-07:00","amenity":"veterinary","name":"Sunshine Plaza Animal Hospital","tags":{"addr:housenumber":"1691","addr:street":"Kingsway","entrance":"yes"}}
{"lat":49.2789055,"lon":-123.1238063,"timestamp":"2019-09-13T13:57:05.000-07:00","amenity":"restaurant","name":"Banh Mi Timon","tags":{"addr:housenumber":"1039","website":"https://www.banhmitimon.com","phone":"+1-604-423-3883","opening_hours":"Mo-Th 11:00-21:00; Fr 11:00-23:00; Sa 12:00-23:00","cuisine":"vietnamese","addr:street":"Granville Street","addr:postcode":"V6Z 1L4","addr:city":"Vancouver"}}
{"lat":49.2667127,"lon":-123.0048264,"timestamp":"2020-02-21T01:55:01.000-08:00","amenity":"pharmacy","name":"Brentwood Pharmacy","tags":{"addr:province":"BC","wheelchair":"yes","addr:housenumber":"4451","drive_through":"no","opening_hours":"Mo-Fr 09:00-19:00; Sa-Su 10:00-14:00","dispensing":"yes","addr:street":"Lougheed Highway","healthcare":"pharmacy","addr:city":"Burnaby"}}
{"lat":49.2666899,"lon":-123.0054187,"timestamp":"2019-10-19T00:48:29.000-07:00","amenity":"bicycle_parking","tags":{"fee":"no"}}
{"lat":49.2668019,"lon":-123.0040541,"timestamp":"2020-03-03T02:18:15.000-08:00","amenity":"fast_food","name":"Pacific Poke","tags":{"addr:province":"BC","cuisine":"poke","addr:street":"Lougheed Highway","drive_through":"no","addr:city":"Burnaby"}}
{"lat":49.2667079,"lon":-123.0045921,"timestamp":"2020-02-20T03:28:26.000-08:00","amenity":"fast_food","name":"Edible Arrangements","tags":{"addr:housenumber":"4459","addr:street":"Lougheed Highway","drive_through":"no","addr:city":"Burnaby"}}
{"lat":49.2668003,"lon":-123.0039686,"timestamp":"2020-03-03T02:18:15.000-08:00","amenity":"restaurant","name":"Grand Chinese Restaurant","tags":{"addr:province":"BC","cuisine":"chinese","outdoor_seating":"no","addr:street":"Lougheed Highway","addr:city":"Burnaby"}}
{"lat":49.2668051,"lon":-123.0042518,"timestamp":"2020-03-03T02:18:15.000-08:00","amenity":"fast_food","name":"Buffalo's Wings","tags":{"addr:province":"BC","addr:street":"Lougheed Highway","drive_through":"no","addr:city":"Burnaby"}}
{"lat":49.2667079,"lon":-123.0047336,"timestamp":"2020-02-21T01:55:01.000-08:00","amenity":"clinic","name":"Spring Medical Centre","tags":{"addr:province":"BC","addr:housenumber":"4453","phone":"+1-604-428-1363","opening_hours":"09:00-17:00","addr:street":"Lougheed Highway","healthcare":"clinic","addr:city":"Burnaby"}}
{"lat":49.2667305,"lon":-123.0053235,"timestamp":"2020-02-21T01:55:01.000-08:00","amenity":"bank","name":"HSBC","tags":{"addr:province":"BC","addr:housenumber":"4447","drive_through":"no","addr:street":"Lougheed Highway","atm":"yes","addr:city":"Burnaby"}}
{"lat":49.2668043,"lon":-123.0041529,"timestamp":"2020-03-03T02:18:15.000-08:00","amenity":"fast_food","name":"Pizza Pizza","tags":{"brand:wikidata":"Q1194143","addr:province":"BC","addr:housenumber":"4461","brand:wikipedia":"en:Pizza Pizza","drive_through":"no","cuisine":"pizza","addr:street":"Lougheed Highway","takeaway":"yes","brand":"Pizza Pizza","addr:unit":"3","addr:city":"Burnaby"}}
{"lat":49.0255218,"lon":-123.0675202,"timestamp":"2020-04-28T00:17:48.000-07:00","amenity":"restaurant","name":"Chopped Leaf","tags":{"addr:province":"BC","addr:housenumber":"1236","addr:country":"CA","addr:street":"56 Street","addr:postcode":"V4L 2A4","addr:city":"Delta"}}
{"lat":49.2002888,"lon":-123.1136738,"timestamp":"2020-04-28T17:40:36.000-07:00","amenity":"toilets","tags":{"toilets:disposal":"flush"}}
{"lat":49.2637917,"lon":-123.1400621,"timestamp":"2019-09-13T13:57:05.000-07:00","amenity":"cafe","name":"Chatime","tags":{"brand:wikidata":"Q16829306","brand:en":"Chatime","brand:wikipedia":"en:Chatime","cuisine":"bubble_tea","takeaway":"yes","addr:city":"Vancouver","addr:housenumber":"1545","name:en":"Chatime","addr:street":"West Broadway","brand:zh":"日出茶太","brand":"Chatime","name:zh":"日出茶太"}}
{"lat":49.3026103,"lon":-123.1556398,"timestamp":"2019-07-31T02:19:16.000-07:00","amenity":"bicycle_rental","name":"Stanley Park - Third Beach Parking Lot","tags":{"ref":"0103","capacity":"28","network":"Mobi"}}
{"lat":49.254363,"lon":-123.2362315,"timestamp":"2019-04-29T21:29:21.000-07:00","amenity":"restaurant","name":"Chef Hung Taiwanese Beef Noodle","tags":{"addr:housenumber":"3313","website":"https://www.chefhungnoodle.com/ubc_vancouver/eng/","phone":"+1-604-228-8765","cuisine":"chinese","addr:street":"Shrum Lane","addr:postcode":"V6S 0B0","addr:city":"Vancouver"}}
{"lat":49.0509808,"lon":-122.3246777,"timestamp":"2019-09-02T22:08:25.000-07:00","amenity":"cafe","name":"Starbucks","tags":{"addr:housenumber":"32470","website":"https://www.starbucks.ca/store-locator/search/location/Abbotsford/detail/1063","ref":"1063","internet_access":"wlan","phone":"+1-604-864-0254","opening_hours":"Mo-Fr 05:00-22:00; Sa-Su 06:00-22:00","cuisine":"coffee_shop","addr:street":"South Fraser Way"}}
{"lat":49.0502823,"lon":-122.3260169,"timestamp":"2019-09-02T22:08:25.000-07:00","amenity":"restaurant","name":"Wok Box","tags":{"delivery":"no","addr:housenumber":"32500","website":"http://m.wokbox.ca/index.php/locations/british-columbia/abbotsford","phone":"+1-604-746-1070","opening_hours":"Su 11:00-20:00; Mo-Sa 11:00-21:00","cuisine":"chinese","addr:street":"South Fraser Way","takeaway":"yes","addr:unit":"E71"}}
{"lat":49.0502221,"lon":-122.3260134,"timestamp":"2019-09-02T22:08:25.000-07:00","amenity":"restaurant","name":"Sushi Nine","tags":{"addr:housenumber":"32500","alt_name":"Sushi 9 Nine","website":"http://www.SushiNine117.com","phone":"+1-604-859-1170","opening_hours":"Mo-Sa 11:00-21:00; Su off","cuisine":"sushi","addr:street":"South Fraser Way","addr:unit":"75"}}
{"lat":49.0505583,"lon":-122.326034,"timestamp":"2020-03-29T23:51:13.000-07:00","amenity":"post_office","name":"Abbotsford Main","tags":{"brand:wikidata":"Q1032001","addr:housenumber":"32500","website":"https://www.canadapost.ca/cpotools/apps/fpo/personal/findPostOfficeDetail?outletId=0000649961","brand:wikipedia":"en:Canada Post","opening_hours":"Mo-Fr 08:30-17:00; Sa-Su off","addr:street":"South Fraser Way","addr:postcode":"V2T 1X0","brand":"Canada Post","addr:unit":"30","operator":"Canada Post"}}
{"lat":49.0503956,"lon":-122.3275789,"timestamp":"2019-09-02T22:08:25.000-07:00","amenity":"fast_food","name":"Booster Juice","tags":{"brand:wikidata":"Q4943796","website":"https://boosterjuice.com/","phone":"+1-604-859-9869","brand:wikipedia":"en:Booster Juice","opening_hours":"Mo-Fr 07:00-22:00; Sa 08:00-22:00; Su,PH 10:00-20:00","cuisine":"juice","takeaway":"yes","brand":"Booster Juice","addr:unit":"107"}}
{"lat":49.0517427,"lon":-122.3259591,"timestamp":"2019-09-02T22:08:25.000-07:00","amenity":"bank","name":"TD Canada Trust","tags":{"brand:wikidata":"Q1080670","website":"http://www.tdcanadatrust.com/cgi-bin/locator/drill.cgi?TRANSIT=0115","ref":"0115","phone":"+1-604-850-5921","brand:wikipedia":"en:TD Canada Trust","opening_hours":"Mo-Fr 08:00-20:00; Sa 08:00-16:00; Su 11:00-16:00","brand":"TD Canada Trust"}}
{"lat":49.0500737,"lon":-122.3192262,"timestamp":"2019-03-18T03:22:01.000-07:00","amenity":"pharmacy","name":"London Drugs","tags":{"brand:wikidata":"Q3258955","website":"https://photolab.londondrugs.com/stores/british-columbia/abbotsford/london-drugs-west-oaks-mall","shop:computer":"yes","shop":"chemist","internet_access":"wlan","brand:wikipedia":"en:London Drugs","internet_access:fee":"no","addr:unit":"26","url":"http://londondrugs.com","shop:electronics":"yes","healthcare":"pharmacy","ref":"Store #16","shop:photo":"yes","phone":"+1-604-852-0936","opening_hours":"Mo-Sa 09:00-22:00; Su 11:00-17:00; PH 09:00-21:00","dispensing":"yes","brand":"London Drugs"}}
{"lat":49.0502684,"lon":-122.3188675,"timestamp":"2019-10-29T04:00:37.000-07:00","amenity":"cafe","name":"Starbucks","tags":{"brand:wikidata":"Q37158","official_name":"Starbucks Coffee","website":"http://starbucks.com/store/1306","internet_access":"wlan","brand:wikipedia":"en:Starbucks","internet_access:fee":"no","cuisine":"coffee_shop","takeaway":"yes","addr:unit":"29","ref":"1306","phone":"+1-604-854-5439","opening_hours":"Mo-Fr 05:00-21:00; Sa 06:00-21:00; Su 07:00-20:00","outdoor_seating":"yes","brand":"Starbucks"}}
{"lat":49.0501786,"lon":-122.3211624,"timestamp":"2019-02-19T16:57:35.000-08:00","amenity":"doctors","name":"West Oaks Medical Centre","tags":{"website":"https://www.denninghealth.ca/contact/locations/abbotsford","phone":"+1-604-557-9938","healthcare:speciality":"general","opening_hours":"Mo,We,Fr 09:00-17:00; Tu,Th 09:00-18:00; Sa 10:00-14:00","addr:unit":"310","operator":"Denning Health Group","healthcare":"doctor"}}
{"lat":49.1710098,"lon":-123.1499124,"timestamp":"2020-03-17T17:01:56.000-07:00","amenity":"parking_entrance","tags":{}}
{"lat":49.2815748,"lon":-122.7958315,"timestamp":"2020-03-18T04:29:43.000-07:00","amenity":"cafe","name":"Awesome Place Coffee and Desert","tags":{"addr:province":"BC","addr:housenumber":"1153","opening_hours":"Su 08:00-20:00 Mo-Sa 08:00-22:00","addr:street":"The High Street","addr:postcode":"V3B 0B7","addr:unit":"136","addr:city":"Coquitlam"}}
{"lat":49.2875946,"lon":-122.878501,"timestamp":"2020-03-18T20:19:41.000-07:00","amenity":"shelter","tags":{}}
{"lat":49.3756728,"lon":-123.2614105,"timestamp":"2020-03-19T15:10:47.000-07:00","amenity":"toilets","tags":{"unisex":"yes","toilets:disposal":"pitlatrine"}}
{"lat":49.2431999,"lon":-122.9724754,"timestamp":"2020-03-19T17:53:47.000-07:00","amenity":"townhall","tags":{"addr:province":"BC","addr:housenumber":"4949","addr:country":"CA","addr:street":"Canada Way","addr:postcode":"V5G 1M2","townhall:type":"city","addr:city":"burnaby"}}
{"lat":49.1913251,"lon":-122.8492686,"timestamp":"2020-03-19T18:04:53.000-07:00","amenity":"townhall","tags":{"addr:province":"BC","addr:housenumber":"13450","addr:country":"CA","addr:street":"104 Avenue","addr:postcode":"V3T 1V8","townhall:type":"city","addr:city":"Surrey"}}
{"lat":49.1756406,"lon":-122.6602515,"timestamp":"2020-04-02T03:19:41.000-07:00","amenity":"bench","tags":{}}
{"lat":49.1755935,"lon":-122.660252,"timestamp":"2020-04-02T03:19:41.000-07:00","amenity":"bench","tags":{}}
{"lat":49.1755735,"lon":-122.6597699,"timestamp":"2020-04-02T03:19:41.000-07:00","amenity":"bench","tags":{}}
{"lat":49.1755408,"lon":-122.6599127,"timestamp":"2020-04-02T03:19:41.000-07:00","amenity":"bench","tags":{}}
{"lat":49.1757572,"lon":-122.6578018,"timestamp":"2020-04-02T03:19:41.000-07:00","amenity":"bench","tags":{}}
{"lat":49.3015447,"lon":-122.7579772,"timestamp":"2020-04-03T13:09:34.000-07:00","amenity":"post_box","tags":{"drive_through":"no"}}
{"lat":49.301547,"lon":-122.7570198,"timestamp":"2020-04-03T13:09:34.000-07:00","amenity":"post_box","tags":{}}
{"lat":49.3003272,"lon":-122.7580219,"timestamp":"2020-04-03T13:09:34.000-07:00","amenity":"post_box","tags":{}}
{"lat":49.3003164,"lon":-122.7571531,"timestamp":"2020-04-03T13:09:34.000-07:00","amenity":"post_box","tags":{}}
{"lat":49.3015128,"lon":-122.7577177,"timestamp":"2020-04-03T13:09:34.000-07:00","amenity":"shelter","tags":{"shelter_type":"public_transport"}}
{"lat":49.3020107,"lon":-122.7583936,"timestamp":"2020-04-03T13:09:34.000-07:00","amenity":"shelter","tags":{"shelter_type":"public_transport"}}
{"lat":49.1056779,"lon":-122.6728154,"timestamp":"2020-03-27T22:50:00.000-07:00","amenity":"cafe","name":"Gossip Corner Cafe","tags":{}}
{"lat":49.1322835,"lon":-122.8913422,"timestamp":"2020-03-28T03:06:02.000-07:00","amenity":"waste_disposal","tags":{}}
{"lat":49.1339176,"lon":-122.8553499,"timestamp":"2020-03-28T04:12:53.000-07:00","amenity":"fast_food","name":"Subway","tags":{"brand:wikidata":"Q244457","cuisine":"sandwich","takeaway":"yes","brand":"Subway","brand:wikipedia":"en:Subway (restaurant)"}}
{"lat":49.1352653,"lon":-122.8545506,"timestamp":"2020-03-28T04:12:53.000-07:00","amenity":"recycling","name":"Stericycle","tags":{"recycling_type":"centre","operator":"OCL"}}
{"lat":49.2878806,"lon":-122.5712711,"timestamp":"2011-01-07T08:49:07.000-08:00","amenity":"parking","tags":{}}
{"lat":49.1137763,"lon":-123.0697719,"timestamp":"2020-04-15T22:02:24.000-07:00","amenity":"bicycle_parking","tags":{}}
{"lat":49.1136206,"lon":-123.0705556,"timestamp":"2020-05-23T00:48:25.000-07:00","amenity":"bench","tags":{"backrest":"yes"}}
{"lat":49.2645401,"lon":-122.7416144,"timestamp":"2020-04-16T05:35:16.000-07:00","amenity":"bench","tags":{"material":"wood"}}
{"lat":49.2645581,"lon":-122.7415638,"timestamp":"2020-04-16T05:35:16.000-07:00","amenity":"bench","tags":{"material":"wood","seats":"as much as u can fit"}}
{"lat":49.1922578,"lon":-122.8455625,"timestamp":"2020-04-16T05:47:41.000-07:00","amenity":"post_box","tags":{"operator":"Canada Post"}}
{"lat":49.2337891,"lon":-123.1166142,"timestamp":"2019-08-29T17:49:06.000-07:00","amenity":"bank","name":"TD Canada Trust","tags":{"brand:wikidata":"Q1080670","addr:housenumber":"511","brand:wikipedia":"en:TD Canada Trust","opening_hours":"Mo-Fr 08:00-20:00; Sa 08:00-16:00; Su 11:00-16:00","addr:street":"West 41st Avenue","atm":"yes","addr:postcode":"V5Z 2M7","brand":"TD Canada Trust"}}
{"lat":49.2337771,"lon":-123.1173324,"timestamp":"2020-01-06T07:58:05.000-08:00","amenity":"bank","name":"HSBC","tags":{"addr:province":"BC","addr:housenumber":"583","addr:street":"West 41st Avenue","atm":"yes","addr:city":"Vancouver"}}
{"lat":49.2319094,"lon":-123.1176408,"timestamp":"2020-01-06T07:54:36.000-08:00","amenity":"bank","name":"RBC","tags":{"brand:wikidata":"Q735261","official_name":"Royal Bank of Canada","addr:housenumber":"650","old_name":"Royal Bank of Canada","brand:wikipedia":"en:Royal Bank of Canada","addr:street":"West 41st Avenue","atm":"yes","brand":"RBC","addr:city":"Vancouver"}}
{"lat":49.2310168,"lon":-123.1174667,"timestamp":"2019-08-29T17:49:06.000-07:00","amenity":"pharmacy","name":"Safeway Pharmacy","tags":{"dispensing":"yes","healthcare":"pharmacy"}}
{"lat":49.233313,"lon":-123.1173462,"timestamp":"2019-08-29T17:49:06.000-07:00","amenity":"restaurant","name":"White Spot","tags":{"brand:wikidata":"Q7995414","addr:housenumber":"650","brand:wikipedia":"en:White Spot","cuisine":"burger","addr:street":"West 41st Avenue","brand":"White Spot"}}
{"lat":49.2160346,"lon":-122.9304858,"timestamp":"2010-12-22T23:36:46.000-08:00","amenity":"recycling","tags":{}}
{"lat":49.2203002,"lon":-122.9082886,"timestamp":"2010-12-22T23:44:02.000-08:00","amenity":"fire_station","tags":{}}
{"lat":49.2487411,"lon":-122.8672207,"timestamp":"2010-12-26T11:26:03.000-08:00","amenity":"pub","name":"John B Pub","tags":{}}
{"lat":49.252447,"lon":-122.7368727,"timestamp":"2020-03-31T00:14:11.000-07:00","amenity":"fountain","tags":{}}
{"lat":49.2518702,"lon":-122.7371611,"timestamp":"2020-03-31T00:14:11.000-07:00","amenity":"fountain","tags":{}}
{"lat":49.2586199,"lon":-122.7228141,"timestamp":"2020-03-31T00:14:11.000-07:00","amenity":"bench","tags":{}}
{"lat":49.2995656,"lon":-123.1212037,"timestamp":"2013-03-28T03:43:20.000-07:00","amenity":"toilets","tags":{}}
{"lat":49.297816,"lon":-123.1314535,"timestamp":"2013-05-31T16:43:21.000-07:00","amenity":"toilets","tags":{"fee":"no"}}
{"lat":49.2194487,"lon":-122.9262828,"timestamp":"2012-03-22T05:08:14.000-07:00","amenity":"post_box","tags":{"operator":"Canada Post"}}
{"lat":49.2190107,"lon":-122.9280084,"timestamp":"2018-02-12T04:09:16.000-08:00","amenity":"cafe","name":"Raw Cuts Sandwich Shop","tags":{"addr:housenumber":"7885","level":"0","addr:street":"6th Street","addr:postcode":"V3N 3N4","addr:unit":"101","addr:city":"Burnaby"}}
{"lat":49.3786789,"lon":-123.1931043,"timestamp":"2010-12-21T00:34:20.000-08:00","amenity":"toilets","tags":{"note":"Outhouse"}}
{"lat":49.262659,"lon":-123.2517449,"timestamp":"2019-11-04T20:07:41.000-08:00","amenity":"cafe","name":"Magma Cafè","tags":{"wheelchair":"yes","addr:housenumber":"6339","website":"https://food.ubc.ca/place/fooood/","internet_access":"wlan","name:fr":"Fooood","name:en":"Fooood","addr:street":"Stores Road","operator":"UBC"}}
{"lat":49.3765459,"lon":-123.1862288,"timestamp":"2010-12-22T17:32:15.000-08:00","amenity":"toilets","tags":{"note":"Outhouse"}}
{"lat":49.3874761,"lon":-123.1791445,"timestamp":"2010-12-22T17:32:21.000-08:00","amenity":"toilets","tags":{"note":"Outhouse"}}
{"lat":49.3764853,"lon":-123.1861692,"timestamp":"2010-12-22T17:32:23.000-08:00","amenity":"toilets","tags":{"note":"Outhouse"}}
{"lat":49.3832264,"lon":-123.1801069,"timestamp":"2010-12-22T17:32:24.000-08:00","amenity":"toilets","tags":{"note":"Outhouse"}}
{"lat":49.264044,"lon":-123.174166,"timestamp":"2019-09-13T13:56:49.000-07:00","amenity":"cafe","name":"Tim Hortons","tags":{"brand:wikidata":"Q175106","addr:housenumber":"3102","website":"https://www.timhortons.com/","brand:wikipedia":"en:Tim Hortons","cuisine":"coffee_shop","addr:street":"West Broadway","takeaway":"yes","brand":"Tim Hortons","operator":"Restaurant Brands International Inc.","addr:city":"Vancouver"}}
{"lat":49.2639983,"lon":-123.1737583,"timestamp":"2019-06-08T06:31:22.000-07:00","amenity":"fast_food","name":"Subway","tags":{"brand:wikidata":"Q244457","website":"http://www.subway.com/","brand:wikipedia":"en:Subway (restaurant)","opening_hours":"Mo-Fr 07:00-00:00; Sa 08:00-00:00; Su 09:00-23:00","cuisine":"sandwich","takeaway":"yes","brand":"Subway"}}
{"lat":49.14515,"lon":-122.0145756,"timestamp":"2019-02-24T18:40:19.000-08:00","amenity":"recycling","name":"Pick-A-Part","tags":{"recycling_type":"centre","shop":"car_parts","recycling:cars":"yes"}}
{"lat":49.3490216,"lon":-122.6162731,"timestamp":"2010-12-18T15:12:40.000-08:00","amenity":"parking","tags":{}}
{"lat":49.2732302,"lon":-122.7929853,"timestamp":"2013-03-25T23:57:07.000-07:00","amenity":"restaurant","tags":{"cuisine":"japanese"}}
{"lat":49.2741446,"lon":-122.794528,"timestamp":"2013-03-25T23:57:07.000-07:00","amenity":"parking","tags":{"parking":"underground"}}
{"lat":49.2504077,"lon":-123.0762609,"timestamp":"2017-07-08T05:22:57.000-07:00","amenity":"restaurant","name":"House of Dosas","tags":{"addr:housenumber":"1391","phone":"+1-604-875-1283","smoking":"no","cuisine":"indian","addr:street":"Kingsway","addr:city":"Vancouver"}}
{"lat":49.2784237,"lon":-122.806704,"timestamp":"2013-03-26T23:45:49.000-07:00","amenity":"cafe","name":"Creekside Coffee","tags":{}}
{"lat":49.2787696,"lon":-122.7976283,"timestamp":"2013-03-26T23:45:49.000-07:00","amenity":"restaurant","name":"Togo Sushi","tags":{"cuisine":"japanese"}}
{"lat":49.2764426,"lon":-122.7901384,"timestamp":"2013-03-26T23:45:50.000-07:00","amenity":"parking","tags":{}}
{"lat":49.2826657,"lon":-122.8269784,"timestamp":"2019-09-13T13:56:49.000-07:00","amenity":"pub","name":"Brown's Social House","tags":{"addr:housenumber":"215","brewery":"Guinness;various","outdoor_seating":"yes","addr:street":"Newport Drive","addr:postcode":"V3H 5B9","addr:city":"Port Moody"}}
{"lat":49.2824201,"lon":-122.8263395,"timestamp":"2019-09-13T13:56:49.000-07:00","amenity":"cafe","name":"Gallagher's Cafe","tags":{"addr:housenumber":"232","internet_access":"yes","level":"1","cuisine":"coffee_shop","outdoor_seating":"yes","addr:street":"Newport Drive","addr:postcode":"V3H 5B9","addr:city":"Port Moody"}}
